{"type": "Feature","bbox": [29.5125,47.722,29.5853,47.7809],"geometry": {"type": "MultiPolygon","coordinates": [[[[29.5853,47.7279,238.8505],[29.5842,47.7515,157.9001],[29.5661,47.7633,232.5651],[29.5746,47.7691,197.3255],[29.5743,47.775,168.9357],[29.539,47.775,241.0745],[29.5299,47.7809,242.6663],[29.5211,47.7809,226.1978],[29.5214,47.7751,226.069],[29.5125,47.7751,200.8238],[29.5137,47.7515,218.0797],[29.5313,47.7515,243.6336],[29.5316,47.7456,245.78],[29.541,47.7338,246.4494],[29.5415,47.722,239.1513],[29.5768,47.722,220.3332],[29.5853,47.7279,238.8505]]]]}
,"properties": {"GID_2": "UKR.17.15_1","GID_0": "UKR","country": "Ukraine","GID_1": "UKR.17_1","province": "Odessa","NL_NAME_1": "Одеська","county": "Kotovs'ka","VARNAME_2": "NA","NL_NAME_2": "NA","TYPE_2": "Misto","ENGTYPE_2": "City","CC_2": "NA","HASC_2": "UA.OD.KM","name": "Kotovs'ka.county","area_km2": 24.16263,"hist_schema_id": "Elevation0-9000","hist_area_km2": {"150": 0.09978,"175": 0.99785,"200": 3.57793,"225": 8.31091,"250": 11.17616}}}