{"type": "Feature","id": 131347.0,"bbox": [36.091075066021233,45.055914617962827,36.120127800396233,45.133551336712827],"geometry": {"type": "Polygon","coordinates": [[[36.094981316021233,45.065436102337827,0.0],[36.094981316021233,45.065436102337827,0.0],[36.119395378521233,45.055914617962827,0.0],[36.120127800396233,45.071112371869077,65.066],[36.110606316021233,45.105353094525327,1.5505],[36.108286980083733,45.133551336712827,10.528],[36.092295769146233,45.121649481244077,4.3058],[36.091075066021233,45.097540594525327,0.0522],[36.092295769146233,45.084784246869077,6.0739],[36.094981316021233,45.065436102337827,0.0]]]}
,"properties": {"name": null,"lge_id": null,"pfafstette": 1.0,"lke_type": "N","altitude": 50,"objectid": 80239,"scalerank": 12,"featurecla": "Lake","note": "_untitled_80239","funkyname": 0,"min_zoom": 7.0,"min_label": 8.0,"area_km2": 12.723109,"hist_schema_id": "Elevation0-9000","hist_area_km2": {"0": 11.405584,"25": 0.464131,"50": 0.419216,"75": 0.314408,"100": 0.11977}}}