{"type": "Feature","bbox": [35.5261,48.2793,35.5789,48.3155],"geometry": {"type": "MultiPolygon","coordinates": [[[[35.5694,48.2909,135.9227],[35.5789,48.3027,158.4668],[35.5702,48.3028,167.3201],[35.5623,48.3149,163.0994],[35.5274,48.3155,184.7585],[35.5261,48.2977,175.0541],[35.5349,48.2975,162.9004],[35.5341,48.2856,160.5793],[35.5428,48.2854,163.7018],[35.5511,48.2793,158.7911],[35.5515,48.2853,157.1583],[35.569,48.2849,137.9619],[35.5694,48.2909,135.9227]]]]}
,"properties": {"GID_2": "UKR.5.26_1","GID_0": "UKR","country": "Ukraine","GID_1": "UKR.5_1","province": "Dnipropetrovs'k","NL_NAME_1": "Дніпропетро́вська","county": "Synel'nykivs'ka","VARNAME_2": "NA","NL_NAME_2": "NA","TYPE_2": "Misto","ENGTYPE_2": "City","CC_2": "NA","HASC_2": "UA.DP.SM","name": "Synel'nykivs'ka.county","area_km2": 10.070468,"hist_schema_id": "Elevation0-9000","hist_area_km2": {"125": 0.705359,"150": 3.963696,"175": 5.401413}}}