{"type": "Feature","bbox": [35.7711,49.9434,35.8072,49.9561],"geometry": {"type": "MultiPolygon","coordinates": [[[[35.8072,49.9494,206.4328],[35.7892,49.9497,223.3708],[35.7805,49.9559,198.9917],[35.7715,49.9561,196.1091],[35.7711,49.9501,189.2524],[35.7798,49.9439,170.2619],[35.8068,49.9434,222.735],[35.8072,49.9494,206.4328]]]]}
,"properties": {"GID_2": "UKR.8.21_1","GID_0": "UKR","country": "Ukraine","GID_1": "UKR.8_1","province": "Kharkiv","NL_NAME_1": "Харківська","county": "n.a.(180)","VARNAME_2": "NA","NL_NAME_2": "NA","TYPE_2": "Misto","ENGTYPE_2": "City","CC_2": "NA","HASC_2": "NA","name": "n.a.(180).county","area_km2": 2.223818,"hist_schema_id": "Elevation0-9000","hist_area_km2": {"175": 0.245591,"200": 1.487061,"225": 0.46388,"250": 0.027287}}}