{"type": "Feature","id": "5482","bbox": [33.3711,44.39797,33.85207,44.85246],"geometry": {"type": "Polygon","coordinates": [[[33.62521,44.66145,140.5165],[33.6114,44.72063,59.9021],[33.68932,44.75416,122.6899],[33.67453,44.79165,99.7478],[33.61732,44.8163,50.6213],[33.58083,44.81926,41.8594],[33.57055,44.85246,0.0],[33.55958,44.84976,0.0],[33.54607,44.8369,0.0],[33.53736,44.819,0.0],[33.53053,44.79877,0.0],[33.52768,44.7932,0.0],[33.52418,44.7897,0.0],[33.51629,44.7851,0.0],[33.52516,44.77241,0.0],[33.53045,44.75731,0.0],[33.53679,44.7298,0.0],[33.54672,44.70954,4.4488],[33.54835,44.69868,0.0],[33.5442,44.68268,0.0],[33.53566,44.67219,0.0],[33.52361,44.66144,0.0],[33.51482,44.64912,0.0],[33.51629,44.63426,25.3756],[33.52516,44.62885,5.9815],[33.55779,44.62434,5.2505],[33.57154,44.62055,43.6242],[33.55112,44.61465,50.1689],[33.50001,44.61392,0.0],[33.48552,44.61034,5.4722],[33.47739,44.60663,18.0462],[33.46648,44.60578,0.0],[33.445,44.60692,0.0],[33.43588,44.60529,3.5002],[33.41383,44.59333,0.0],[33.40545,44.59024,0.0],[33.37501,44.58539,0.0],[33.3711,44.58845,0.0],[33.37135,44.58796,0.0],[33.37233,44.57648,0.0],[33.37965,44.56452,0.0],[33.48715,44.51032,138.7501],[33.49952,44.5008,0.0],[33.51759,44.49055,0.0],[33.53907,44.4916,0.0],[33.56039,44.49628,297.277],[33.57838,44.49706,136.7154],[33.59002,44.49006,0.0],[33.62013,44.46223,0.0],[33.62615,44.45303,0.0],[33.63168,44.43431,0.0],[33.64536,44.42512,0.0],[33.72096,44.39964,0.0],[33.73,44.39797,113.4469],[33.76527,44.40599,620.5159],[33.76626,44.41782,316.4962],[33.78598,44.42473,393.5892],[33.85207,44.43163,593.0121],[33.84319,44.45629,330.8763],[33.80571,44.52731,373.4398],[33.77711,44.53224,527.6074],[33.76922,44.55591,387.5466],[33.72976,44.55394,185.9488],[33.71299,44.58156,261.1729],[33.75048,44.62397,198.2378],[33.70905,44.66638,162.1384],[33.62521,44.66145,140.5165]]]}
,"properties": {"ISO3166-1-Alpha-3": "UKR","country": "Ukraine","fill": "#FF0","name": "Sevastopol","area_km2": 748.0928,"hist_schema_id": "Elevation0-9000","hist_area_km2": {"0": 81.8995,"25": 70.6971,"50": 76.8035,"75": 74.9894,"100": 64.5088,"125": 47.4983,"150": 36.4955,"175": 38.1558,"200": 29.046,"225": 24.0328,"250": 38.9097,"275": 30.9695,"300": 20.4593,"325": 15.4691,"350": 14.05,"375": 12.0101,"400": 10.8922,"425": 10.0907,"450": 8.6385,"475": 8.4121,"500": 7.8226,"525": 7.9435,"550": 6.4009,"575": 4.2376,"600": 2.1798,"625": 1.968,"650": 1.4685,"675": 1.2414,"700": 0.6359,"725": 0.1665}}}